{
  "type": "FeatureCollection",
  "features": [
    {
      "type": "Feature",
      "properties": {
        "norad_id": 37836,
        "name": "EUTELSAT 16A",
        "group": "eutelsat",
        "lat": -0.06194178346982285,
        "lon": -54.66350530109541,
        "alt_km": 35766.92693688086,
        "timestamp": "2025-12-11T13:55:01.839478+00:00",
        "meta_object_name": "EUTELSAT 16A",
        "meta_object_id": "2011-057A",
        "meta_epoch": "2025-12-11T05:01:33.538080",
        "meta_mean_motion": 1.00271712,
        "meta_eccentricity": 0.00059972,
        "meta_inclination": 0.0589,
        "meta_ra_of_asc_node": 6.1831,
        "meta_arg_of_pericenter": 258.133,
        "meta_mean_anomaly": 267.2462,
        "meta_ephemeris_type": 0,
        "meta_classification_type": "U",
        "meta_norad_cat_id": 37836,
        "meta_element_set_no": 999,
        "meta_rev_at_epoch": 544,
        "meta_bstar": 0,
        "meta_mean_motion_dot": 1.1e-06,
        "meta_mean_motion_ddot": 0,
        "tle_line1": "1 37836U 11057A   25345.20941595  .00000110  00000+0  00000+0 0  9995",
        "tle_line2": "2 37836   0.0589   6.1831 0005997 258.1330 267.2462  1.00271712  5445"
      },
      "geometry": {
        "type": "Point",
        "coordinates": [
          -54.66350530109541,
          -0.06194178346982285
        ]
      }
    },
    {
      "type": "Feature",
      "properties": {
        "norad_id": 38992,
        "name": "EUTELSAT 21B",
        "group": "eutelsat",
        "lat": -0.06128578164557965,
        "lon": -49.08701636326302,
        "alt_km": 35775.51565985428,
        "timestamp": "2025-12-11T13:55:01.839491+00:00",
        "meta_object_name": "EUTELSAT 21B",
        "meta_object_id": "2012-062B",
        "meta_epoch": "2025-12-11T05:03:10.883232",
        "meta_mean_motion": 1.00271809,
        "meta_eccentricity": 0.0003318,
        "meta_inclination": 0.0666,
        "meta_ra_of_asc_node": 2.6211,
        "meta_arg_of_pericenter": 266.9149,
        "meta_mean_anomaly": 268.0294,
        "meta_ephemeris_type": 0,
        "meta_classification_type": "U",
        "meta_norad_cat_id": 38992,
        "meta_element_set_no": 999,
        "meta_rev_at_epoch": 4794,
        "meta_bstar": 0,
        "meta_mean_motion_dot": 1.36e-06,
        "meta_mean_motion_ddot": 0,
        "tle_line1": "1 38992U 12062B   25345.21054263  .00000136  00000+0  00000+0 0  9992",
        "tle_line2": "2 38992   0.0666   2.6211 0003318 266.9149 268.0294  1.00271809 47948"
      },
      "geometry": {
        "type": "Point",
        "coordinates": [
          -49.08701636326302,
          -0.06128578164557965
        ]
      }
    },
    {
      "type": "Feature",
      "properties": {
        "norad_id": 39020,
        "name": "EUTELSAT 70B",
        "group": "eutelsat",
        "lat": 0.025889793260778043,
        "lon": -0.14252226396305562,
        "alt_km": 35793.63353686193,
        "timestamp": "2025-12-11T13:55:01.839502+00:00",
        "meta_object_name": "EUTELSAT 70B",
        "meta_object_id": "2012-069A",
        "meta_epoch": "2025-12-11T03:34:11.904960",
        "meta_mean_motion": 1.0027174,
        "meta_eccentricity": 0.00043409,
        "meta_inclination": 0.0633,
        "meta_ra_of_asc_node": 342.22,
        "meta_arg_of_pericenter": 263.2328,
        "meta_mean_anomaly": 318.7306,
        "meta_ephemeris_type": 0,
        "meta_classification_type": "U",
        "meta_norad_cat_id": 39020,
        "meta_element_set_no": 999,
        "meta_rev_at_epoch": 4762,
        "meta_bstar": 0,
        "meta_mean_motion_dot": -3.8e-07,
        "meta_mean_motion_ddot": 0,
        "tle_line1": "1 39020U 12069A   25345.14874890 -.00000038  00000+0  00000+0 0  9992",
        "tle_line2": "2 39020   0.0633 342.2200 0004340 263.2328 318.7306  1.00271740 47627"
      },
      "geometry": {
        "type": "Point",
        "coordinates": [
          -0.14252226396305562,
          0.025889793260778043
        ]
      }
    },
    {
      "type": "Feature",
      "properties": {
        "norad_id": 39122,
        "name": "EUTELSAT 117 WEST A",
        "group": "eutelsat",
        "lat": 0.0014787659119115727,
        "lon": 172.45110187201072,
        "alt_km": 35786.28273462571,
        "timestamp": "2025-12-11T13:55:01.839514+00:00",
        "meta_object_name": "EUTELSAT 117 WEST A",
        "meta_object_id": "2013-012A",
        "meta_epoch": "2025-12-11T05:08:38.770368",
        "meta_mean_motion": 1.00271255,
        "meta_eccentricity": 0.00029878,
        "meta_inclination": 0.0133,
        "meta_ra_of_asc_node": 6.2922,
        "meta_arg_of_pericenter": 256.4978,
        "meta_mean_anomaly": 137.7439,
        "meta_ephemeris_type": 0,
        "meta_classification_type": "U",
        "meta_norad_cat_id": 39122,
        "meta_element_set_no": 999,
        "meta_rev_at_epoch": 4654,
        "meta_bstar": 0,
        "meta_mean_motion_dot": -7e-08,
        "meta_mean_motion_ddot": 0,
        "tle_line1": "1 39122U 13012A   25345.21433762 -.00000007  00000+0  00000+0 0  9997",
        "tle_line2": "2 39122   0.0133   6.2922 0002987 256.4978 137.7439  1.00271255 46540"
      },
      "geometry": {
        "type": "Point",
        "coordinates": [
          172.45110187201072,
          0.0014787659119115727
        ]
      }
    },
    {
      "type": "Feature",
      "properties": {
        "norad_id": 39163,
        "name": "EUTELSAT 7B",
        "group": "eutelsat",
        "lat": -0.0839281469347385,
        "lon": -63.73417509507206,
        "alt_km": 35767.642098597236,
        "timestamp": "2025-12-11T13:55:01.839527+00:00",
        "meta_object_name": "EUTELSAT 7B",
        "meta_object_id": "2013-022A",
        "meta_epoch": "2025-12-11T04:59:03.776640",
        "meta_mean_motion": 1.00272416,
        "meta_eccentricity": 0.00046104,
        "meta_inclination": 0.0724,
        "meta_ra_of_asc_node": 18.324,
        "meta_arg_of_pericenter": 298.0075,
        "meta_mean_anomaly": 205.5967,
        "meta_ephemeris_type": 0,
        "meta_classification_type": "U",
        "meta_norad_cat_id": 39163,
        "meta_element_set_no": 999,
        "meta_rev_at_epoch": 4607,
        "meta_bstar": 0,
        "meta_mean_motion_dot": 5.4e-07,
        "meta_mean_motion_ddot": 0,
        "tle_line1": "1 39163U 13022A   25345.20768260  .00000054  00000+0  00000+0 0  9997",
        "tle_line2": "2 39163   0.0724  18.3240 0004610 298.0075 205.5967  1.00272416 46071"
      },
      "geometry": {
        "type": "Point",
        "coordinates": [
          -63.73417509507206,
          -0.0839281469347385
        ]
      }
    },
    {
      "type": "Feature",
      "properties": {
        "norad_id": 39612,
        "name": "EXPRESS-AT1",
        "group": "eutelsat",
        "lat": 0.014970569760177355,
        "lon": -14.712894790236742,
        "alt_km": 35787.60567640314,
        "timestamp": "2025-12-11T13:55:01.839539+00:00",
        "meta_object_name": "EXPRESS-AT1",
        "meta_object_id": "2014-010A",
        "meta_epoch": "2025-12-11T05:13:02.438976",
        "meta_mean_motion": 1.00271146,
        "meta_eccentricity": 4.682e-05,
        "meta_inclination": 0.0148,
        "meta_ra_of_asc_node": 297.7669,
        "meta_arg_of_pericenter": 272.9948,
        "meta_mean_anomaly": 3.6718,
        "meta_ephemeris_type": 0,
        "meta_classification_type": "U",
        "meta_norad_cat_id": 39612,
        "meta_element_set_no": 999,
        "meta_rev_at_epoch": 4293,
        "meta_bstar": 0,
        "meta_mean_motion_dot": 8.5e-07,
        "meta_mean_motion_ddot": 0,
        "tle_line1": "1 39612U 14010A   25345.21738934  .00000085  00000+0  00000+0 0  9994",
        "tle_line2": "2 39612   0.0148 297.7669 0000468 272.9948   3.6718  1.00271146 42936"
      },
      "geometry": {
        "type": "Point",
        "coordinates": [
          -14.712894790236742,
          0.014970569760177355
        ]
      }
    },
    {
      "type": "Feature",
      "properties": {
        "norad_id": 39613,
        "name": "EXPRESS-AT2",
        "group": "eutelsat",
        "lat": 0.03463310481176954,
        "lon": 69.16022381900721,
        "alt_km": 35791.3852535794,
        "timestamp": "2025-12-11T13:55:01.839551+00:00",
        "meta_object_name": "EXPRESS-AT2",
        "meta_object_id": "2014-010B",
        "meta_epoch": "2025-12-11T06:08:34.749600",
        "meta_mean_motion": 1.00268348,
        "meta_eccentricity": 0.00013614,
        "meta_inclination": 0.0164,
        "meta_ra_of_asc_node": 344.6423,
        "meta_arg_of_pericenter": 306.1958,
        "meta_mean_anomaly": 21.388,
        "meta_ephemeris_type": 0,
        "meta_classification_type": "U",
        "meta_norad_cat_id": 39613,
        "meta_element_set_no": 999,
        "meta_rev_at_epoch": 4261,
        "meta_bstar": 0,
        "meta_mean_motion_dot": 0,
        "meta_mean_motion_ddot": 0,
        "tle_line1": "1 39613U 14010B   25345.25595775  .00000000  00000+0  00000+0 0  9990",
        "tle_line2": "2 39613   0.0164 344.6423 0001361 306.1958  21.3880  1.00268348 42611"
      },
      "geometry": {
        "type": "Point",
        "coordinates": [
          69.16022381900721,
          0.03463310481176954
        ]
      }
    }
  ]
}